*******************************************************************************
 Revised: April 22, 2021              Neptune                               899
 
 PHYSICAL DATA (update 2021-May-03):
  Mass x10^24 (kg)      = 102.409         Density (g/cm^3)       =  1.638
  Equat. radius (1 bar) = 24766+-15 km    Volume, 10^10 km^3     = 6254     
  Vol. mean radius (km) = 24624+-21       Polar radius (km)      = 24342+-30
  Geometric Albedo      = 0.41            Flattening             =  0.0171
  Sid. rot. period (III)= 16.11+-0.01 hr  Sid. rot. rate (rad/s) =  0.000108338 
  Mean solar day, h     =~16.11 h         
  GM (km^3/s^2)         = 6835099.97      GM 1-sigma (km^3/s^2)  = +-10 
  Equ. grav, ge (m/s^2) = 11.15           Pol. grav, gp (m/s^2)  = 11.41+-0.03
  Visual magnitude V(1,0)= -6.87
  Vis. mag. (opposition)=  +7.84          Obliquity to orbit     = 28.32 deg
  Sidereal orbit period = 164.788501027 y Sidereal orbit period  = 60189 d
  Mean daily motion     = 0.006020076dg/d Mean orbit velocity    =  5.43 km/s 
  Atmos. temp. (1 bar)  =  72+-2 K        Escape speed (1 bar)  =  23.5 km/s     
  Aroche(ice)/Rp        =  2.98           Hill's sphere rad., Rp = 4700
                                 Perihelion  Aphelion    Mean
  Solar Constant (W/m^2)         1.54        1.49        1.51
  Maximum Planetary IR (W/m^2)   0.52        0.52        0.52
  Minimum Planetary IR (W/m^2)   0.52        0.52        0.52
*******************************************************************************


*******************************************************************************
Ephemeris / WWW_USER Wed May 27 02:41:07 2026 Pasadena, USA      / Horizons
*******************************************************************************
Target body name: Neptune (899)                   {source: nep097_merged}
Center body name: Solar System Barycenter (0)     {source: DE441}
Center-site name: BODY CENTER
*******************************************************************************
Start time      : A.D. 1800-Jan-01 00:00:00.0000 TDB
Stop  time      : A.D. 2000-Jan-01 00:00:00.0000 TDB
Step-size       : 14400 minutes
*******************************************************************************
Center geodetic : 0.0, 0.0, 0.0                   {E-lon(deg),Lat(deg),Alt(km)}
Center cylindric: 0.0, 0.0, 0.0                   {E-lon(deg),Dxy(km),Dz(km)}
Center radii    : (undefined)
Output units    : KM-S
Calendar mode   : Mixed Julian/Gregorian
Output type     : GEOMETRIC cartesian states
Output format   : 3 (position, velocity, LT, range, range-rate)
Reference frame : Ecliptic of J2000.0
*******************************************************************************
JDTDB
   X     Y     Z
   VX    VY    VZ
   LT    RG    RR
*******************************************************************************
$$SOE
2416176.500000000 = A.D. 1903-Mar-03 00:00:00.0000 TDB 
 X =-3.185348725850548E+08 Y = 4.460767436963835E+09 Z =-8.451047604141068E+07
 VX=-5.452121200700059E+00 VY=-3.521716324390193E-01 VZ= 1.324333174330957E-01
 LT= 1.492006977548451E+04 RG= 4.472924391524009E+09 RR= 3.455076937355198E-02
2416186.500000000 = A.D. 1903-Mar-13 00:00:00.0000 TDB 
 X =-3.232460681740342E+08 Y = 4.460460972883652E+09 Z =-8.439565040773606E+07
 VX=-5.452132519277026E+00 VY=-3.568256168592588E-01 VZ= 1.334754208820006E-01
 LT= 1.492017049662086E+04 RG= 4.472954586961049E+09 RR= 3.566075036854349E-02
2416196.500000000 = A.D. 1903-Mar-23 00:00:00.0000 TDB 
 X =-3.279567258550837E+08 Y = 4.460149529750032E+09 Z =-8.428079067919064E+07
 VX=-5.452928964735083E+00 VY=-3.632958544401152E-01 VZ= 1.331918907681022E-01
 LT= 1.492027115432376E+04 RG= 4.472984763381218E+09 RR= 3.504268082263125E-02
2416206.500000000 = A.D. 1903-Apr-02 00:00:00.0000 TDB 
 X =-3.326670131548272E+08 Y = 4.459833293522509E+09 Z =-8.416571752229118E+07
 VX=-5.451357017806171E+00 VY=-3.696341764514620E-01 VZ= 1.326023809482444E-01
 LT= 1.492037239517380E+04 RG= 4.473015114624499E+09 RR= 3.438827540546355E-02
2416216.500000000 = A.D. 1903-Apr-12 00:00:00.0000 TDB 
 X =-3.373771161595036E+08 Y = 4.459512058915108E+09 Z =-8.405056346273923E+07
 VX=-5.450400951195046E+00 VY=-3.742336517824810E-01 VZ= 1.335209805770778E-01
 LT= 1.492047359113723E+04 RG= 4.473045452411117E+09 RR= 3.548333230422087E-02
2416226.500000000 = A.D. 1903-Apr-22 00:00:00.0000 TDB 
 X =-3.420867423647038E+08 Y = 4.459185764152975E+09 Z =-8.393542883237505E+07
 VX=-5.451426805755125E+00 VY=-3.800062945139800E-01 VZ= 1.338409987275089E-01
 LT= 1.492057447012932E+04 RG= 4.473075695172117E+09 RR= 3.557019546602195E-02
2416236.500000000 = A.D. 1903-May-02 00:00:00.0000 TDB 
 X =-3.467958673380679E+08 Y = 4.458854652732660E+09 Z =-8.382012132672000E+07
 VX=-5.450632851376621E+00 VY=-3.868150042842979E-01 VZ= 1.330096661286635E-01
 LT= 1.492067582211243E+04 RG= 4.473106079732257E+09 RR= 3.450760534867173E-02
2416246.500000000 = A.D. 1903-May-12 00:00:00.0000 TDB 
 X =-3.515047846674309E+08 Y = 4.458518641792843E+09 Z =-8.370465608930922E+07
 VX=-5.448931739429324E+00 VY=-3.918306295515085E-01 VZ= 1.334655206886787E-01
 LT= 1.492077744781674E+04 RG= 4.473136546351947E+09 RR= 3.513635774744253E-02
2416256.500000000 = A.D. 1903-May-22 00:00:00.0000 TDB 
 X =-3.562133293973544E+08 Y = 4.458177538748255E+09 Z =-8.358921672104526E+07
 VX=-5.449579351292194E+00 VY=-3.968850211250003E-01 VZ= 1.343015050184408E-01
 LT= 1.492087867615770E+04 RG= 4.473166893845101E+09 RR= 3.590359226386065E-02
2416266.500000000 = A.D. 1903-Jun-01 00:00:00.0000 TDB 
 X =-3.609212931798787E+08 Y = 4.457831543084067E+09 Z =-8.347367846782088E+07
 VX=-5.449713544074387E+00 VY=-4.037084958175980E-01 VZ= 1.336224649847372E-01
 LT= 1.492098010638315E+04 RG= 4.473197301861708E+09 RR= 3.489656809399759E-02
2416276.500000000 = A.D. 1903-Jun-11 00:00:00.0000 TDB 
 X =-3.656289521967874E+08 Y = 4.457480729135246E+09 Z =-8.335793274922633E+07
 VX=-5.447793194293890E+00 VY=-4.094315614489130E-01 VZ= 1.334711702495626E-01
 LT= 1.492108205181536E+04 RG= 4.473227864333409E+09 RR= 3.480970481385523E-02
2416286.500000000 = A.D. 1903-Jun-21 00:00:00.0000 TDB 
 X =-3.703363358211377E+08 Y = 4.457124854174434E+09 Z =-8.324216970893145E+07
 VX=-5.447602523099075E+00 VY=-4.140423206958505E-01 VZ= 1.345196936828851E-01
 LT= 1.492118372625220E+04 RG= 4.473258345562745E+09 RR= 3.594899189082828E-02
2416296.500000000 = A.D. 1903-Jul-01 00:00:00.0000 TDB 
 X =-3.750431367351410E+08 Y = 4.456763990555172E+09 Z =-8.312638442914271E+07
 VX=-5.448414862587335E+00 VY=-4.204161900589848E-01 VZ= 1.343222633446452E-01
 LT= 1.492128528503663E+04 RG= 4.473288792120363E+09 RR= 3.543905762956803E-02
2416306.500000000 = A.D. 1903-Jul-11 00:00:00.0000 TDB 
 X =-3.797494960936026E+08 Y = 4.456398338935838E+09 Z =-8.301039002018690E+07
 VX=-5.446880433759376E+00 VY=-4.268424615989143E-01 VZ= 1.336710471712969E-01
 LT= 1.492138742126341E+04 RG= 4.473319411790840E+09 RR= 3.468877652162167E-02
2416316.500000000 = A.D. 1903-Jul-21 00:00:00.0000 TDB 
 X =-3.844556231376525E+08 Y = 4.456027708067324E+09 Z =-8.289430366045380E+07
 VX=-5.445731238027280E+00 VY=-4.314718400159445E-01 VZ= 1.345370429441639E-01
 LT= 1.492148956600211E+04 RG= 4.473350034013126E+09 RR= 3.573142420945987E-02
2416326.500000000 = A.D. 1903-Jul-31 00:00:00.0000 TDB 
 X =-3.891612378761014E+08 Y = 4.455652013202253E+09 Z =-8.277824243705320E+07
 VX=-5.446680120929518E+00 VY=-4.371233861355019E-01 VZ= 1.349471650069353E-01
 LT= 1.492159136537079E+04 RG= 4.473380552696084E+09 RR= 3.594516310167295E-02
2416336.500000000 = A.D. 1903-Aug-10 00:00:00.0000 TDB 
 X =-3.938662852468964E+08 Y = 4.455271497699347E+09 Z =-8.266201936466384E+07
 VX=-5.445969920639916E+00 VY=-4.439584632519543E-01 VZ= 1.341115429570239E-01
 LT= 1.492169359900224E+04 RG= 4.473411201567751E+09 RR= 3.485986794693800E-02
2416346.500000000 = A.D. 1903-Aug-20 00:00:00.0000 TDB 
 X =-3.985710646952631E+08 Y = 4.454886101884019E+09 Z =-8.254562964490461E+07
 VX=-5.444139032745090E+00 VY=-4.490627275367451E-01 VZ= 1.344765335243298E-01
 LT= 1.492179615553270E+04 RG= 4.473441947242098E+09 RR= 3.537601215949798E-02
2416356.500000000 = A.D. 1903-Aug-30 00:00:00.0000 TDB 
 X =-4.032754384070709E+08 Y = 4.454495619559884E+09 Z =-8.242926350094581E+07
 VX=-5.444622730338009E+00 VY=-4.540206413285940E-01 VZ= 1.353674470862675E-01
 LT= 1.492189832175789E+04 RG= 4.473472575905872E+09 RR= 3.623391422088359E-02
2416366.500000000 = A.D. 1903-Sep-09 00:00:00.0000 TDB 
 X =-4.079791759452209E+08 Y = 4.454100235330246E+09 Z =-8.231281215497923E+07
 VX=-5.444826457102326E+00 VY=-4.607966859245919E-01 VZ= 1.347421837716714E-01
 LT= 1.492200063417549E+04 RG= 4.473503248397027E+09 RR= 3.528558427036660E-02
2416376.500000000 = A.D. 1903-Sep-19 00:00:00.0000 TDB 
 X =-4.126825396020675E+08 Y = 4.453700046203919E+09 Z =-8.219615083306074E+07
 VX=-5.442869567439542E+00 VY=-4.666292340309927E-01 VZ= 1.344988790393163E-01
 LT= 1.492210348566159E+04 RG= 4.473534082496855E+09 RR= 3.507189206745971E-02
2416386.500000000 = A.D. 1903-Sep-29 00:00:00.0000 TDB 
 X =-4.173855891681312E+08 Y = 4.453294810902170E+09 Z =-8.207946339835954E+07
 VX=-5.442472507856464E+00 VY=-4.712072057065531E-01 VZ= 1.355435130731444E-01
 LT= 1.492220610531543E+04 RG= 4.473564847095119E+09 RR= 3.622606509781177E-02
2416396.500000000 = A.D. 1903-Oct-09 00:00:00.0000 TDB 
 X =-4.220880130060894E+08 Y = 4.452884578392565E+09 Z =-8.196276489099169E+07
 VX=-5.443287455611560E+00 VY=-4.774772172285912E-01 VZ= 1.354354238413698E-01
 LT= 1.492230855984088E+04 RG= 4.473595562189137E+09 RR= 3.583130955816747E-02
2416406.500000000 = A.D. 1903-Oct-19 00:00:00.0000 TDB 
 X =-4.267899244482819E+08 Y = 4.452469562039044E+09 Z =-8.184586275547314E+07
 VX=-5.441801542161106E+00 VY=-4.839849127532739E-01 VZ= 1.347298433093297E-01
 LT= 1.492241157990184E+04 RG= 4.473626446826435E+09 RR= 3.499418159240868E-02
